CCSDS_OMM_VERS,COMMENT,CREATION_DATE,ORIGINATOR,OBJECT_NAME,OBJECT_ID,CENTER_NAME,REF_FRAME,TIME_SYSTEM,MEAN_ELEMENT_THEORY,EPOCH,MEAN_MOTION,ECCENTRICITY,INCLINATION,RA_OF_ASC_NODE,ARG_OF_PERICENTER,MEAN_ANOMALY,EPHEMERIS_TYPE,CLASSIFICATION_TYPE,NORAD_CAT_ID,ELEMENT_SET_NO,REV_AT_EPOCH,BSTAR,MEAN_MOTION_DOT,MEAN_MOTION_DDOT,SEMIMAJOR_AXIS,PERIOD,APOAPSIS,PERIAPSIS,OBJECT_TYPE,RCS_SIZE,COUNTRY_CODE,LAUNCH_DATE,SITE,DECAY_DATE,FILE,GP_ID,TLE_LINE0,TLE_LINE1,TLE_LINE2
2.0,GENERATED VIA SPACE-TRACK.ORG API,2022-08-20T07:16:13,18 SPCS,STARLINK-1351,2020-035AS,EARTH,TEME,UTC,SGP4,2022-08-20T02:59:10.253472,15.0634993,0.0001802,53.0542,101.63,88.9178,271.2017,0,U,45697,999,12317,-0.00042603,-6.613e-05,0.0,6925.502,95.595,548.615,546.119,PAYLOAD,LARGE,US,2020-06-04,AFETR,,3540840,210553427,0 STARLINK-1351,1 45697U 20035AS  22232.12442423 -.00006613  00000-0 -42603-3 0  9990,2 45697  53.0542 101.6300 0001802  88.9178 271.2017 15.06349930123179
2.0,GENERATED VIA SPACE-TRACK.ORG API,2022-08-20T07:06:17,18 SPCS,STARLINK-1524,2020-055W,EARTH,TEME,UTC,SGP4,2022-08-20T02:59:07.479168,15.0638626,0.000151,53.0532,181.606,81.8239,278.2921,0,U,46047,999,11294,-0.00010108,-1.786e-05,0.0,6925.391,95.593,548.301,546.21,PAYLOAD,LARGE,US,2020-08-07,AFETR,,3540819,210552710,0 STARLINK-1524,1 46047U 20055W   22232.12439212 -.00001786  00000-0 -10108-3 0  9995,2 46047  53.0532 181.6060 0001510  81.8239 278.2921 15.06386260112946
2.0,GENERATED VIA SPACE-TRACK.ORG API,2022-08-20T08:06:12,18 SPCS,STARLINK-3110,2021-104N,EARTH,TEME,UTC,SGP4,2022-08-20T02:58:43.435776,15.08834013,0.0001461,53.2177,294.1154,70.2312,289.8837,0,U,49420,999,4383,-6.6553e-05,-1.347e-05,0.0,6917.899,95.438,540.774,538.753,PAYLOAD,LARGE,US,2021-11-13,AFETR,,3540914,210554822,0 STARLINK-3110,1 49420U 21104N   22232.12411384 -.00001347  00000-0 -66553-4 0  9998,2 49420  53.2177 294.1154 0001461  70.2312 289.8837 15.08834013 43835
2.0,GENERATED VIA SPACE-TRACK.ORG API,2022-08-20T07:06:17,18 SPCS,STARLINK-2518,2021-036BK,EARTH,TEME,UTC,SGP4,2022-08-20T02:58:27.166656,15.06383278,0.0001621,53.055,166.6074,69.3431,290.7732,0,U,48333,999,7305,-0.00017089,-2.825e-05,0.0,6925.4,95.593,548.387,546.142,PAYLOAD,LARGE,US,2021-04-29,AFETR,,3540831,210552774,0 STARLINK-2518,1 48333U 21036BK  22232.12392554 -.00002825  00000-0 -17089-3 0  9992,2 48333  53.0550 166.6074 0001621  69.3431 290.7732 15.06383278 73055
2.0,GENERATED VIA SPACE-TRACK.ORG API,2022-08-20T07:16:13,18 SPCS,STARLINK-2419,2021-018AV,EARTH,TEME,UTC,SGP4,2022-08-20T02:58:26.736384,15.06396014,0.0001755,53.0533,326.6327,31.4749,328.6345,0,U,47830,999,8054,0.00011891,1.49e-05,0.0,6925.361,95.592,548.441,546.01,PAYLOAD,LARGE,US,2021-03-11,AFETR,,3540847,210553526,0 STARLINK-2419,1 47830U 21018AV  22232.12392056  .00001490  00000-0  11891-3 0  9990,2 47830  53.0533 326.6327 0001755  31.4749 328.6345 15.06396014 80541
2.0,GENERATED VIA SPACE-TRACK.ORG API,2022-08-20T07:16:13,18 SPCS,STARLINK-2130,2021-005BJ,EARTH,TEME,UTC,SGP4,2022-08-20T02:58:26.406336,15.06388658,0.0001487,53.0535,126.6123,64.3439,295.7703,0,U,47405,999,8746,-0.00022657,-3.654e-05,0.0,6925.383,95.593,548.278,546.219,PAYLOAD,LARGE,US,2021-01-20,AFETR,,3540838,210553388,0 STARLINK-2130,1 47405U 21005BJ  22232.12391674 -.00003654  00000-0 -22657-3 0  9997,2 47405  53.0535 126.6123 0001487  64.3439 295.7703 15.06388658 87461
2.0,GENERATED VIA SPACE-TRACK.ORG API,2022-08-20T07:26:12,18 SPCS,OBJECT D,2021-033D,EARTH,TEME,UTC,SGP4,2022-08-20T02:58:09.577344,15.27886828,0.0010652,97.3547,304.9055,37.3411,49.8861,0,U,48251,999,7306,0.00041786,0.00011325,0.0,6860.267,94.248,489.44,474.825,UNKNOWN,LARGE,PRC,2021-04-27,TSC,,3540869,210553772,0 OBJECT D,1 48251U 21033D   22232.12372196  .00011325  00000-0  41786-3 0  9992,2 48251  97.3547 304.9055 0010652  37.3411  49.8861 15.27886828 73063
2.0,GENERATED VIA SPACE-TRACK.ORG API,2022-08-20T07:16:13,18 SPCS,PSLV R/B,2019-089L,EARTH,TEME,UTC,SGP4,2022-08-20T02:57:53.087040,15.09088235,0.0037153,36.9784,11.3158,234.862,124.8641,0,U,44862,999,14837,0.00018513,2.954e-05,0.0,6917.122,95.422,564.686,513.288,ROCKET BODY,LARGE,IND,2019-12-11,SRI,,3540852,210553567,0 PSLV R/B,1 44862U 19089L   22232.12353110  .00002954  00000-0  18513-3 0  9999,2 44862  36.9784  11.3158 0037153 234.8620 124.8641 15.09088235148376
2.0,GENERATED VIA SPACE-TRACK.ORG API,2022-08-20T06:56:12,18 SPCS,STARLINK-3240,2021-115E,EARTH,TEME,UTC,SGP4,2022-08-20T02:57:24.180192,15.08834964,0.0001963,53.2152,224.1248,55.223,304.8947,0,U,49728,999,4061,1.3796e-05,-6.9e-07,0.0,6917.896,95.438,541.119,538.403,PAYLOAD,LARGE,US,2021-12-02,AFETR,,3540807,210551821,0 STARLINK-3240,1 49728U 21115E   22232.12319653 -.00000069  00000-0  13796-4 0  9997,2 49728  53.2152 224.1248 0001963  55.2230 304.8947 15.08834964 40613
2.0,GENERATED VIA SPACE-TRACK.ORG API,2022-08-20T09:06:13,18 SPCS,STARLINK-3166,2022-010G,EARTH,TEME,UTC,SGP4,2022-08-20T02:57:24.033312,15.08832904,0.0003348,53.2213,344.1404,9.4739,350.6315,0,U,51462,999,3140,-2.7011e-05,-7.19e-06,0.0,6917.902,95.438,542.083,537.451,PAYLOAD,LARGE,US,2022-02-03,AFETR,,3540993,210556049,0 STARLINK-3166,1 51462U 22010G   22232.12319483 -.00000719  00000-0 -27011-4 0  9999,2 51462  53.2213 344.1404 0003348   9.4739 350.6315 15.08832904 31407
2.0,GENERATED VIA SPACE-TRACK.ORG API,2022-08-20T06:56:12,18 SPCS,STARLINK-2666,2021-044AE,EARTH,TEME,UTC,SGP4,2022-08-20T02:57:12.792672,15.06385584,0.0001595,53.0554,177.1051,63.4669,296.6484,0,U,48666,999,6916,-5.7224e-05,-1.133e-05,0.0,6925.393,95.593,548.362,546.153,PAYLOAD,LARGE,US,2021-05-26,AFETR,,3540776,210551750,0 STARLINK-2666,1 48666U 21044AE  22232.12306473 -.00001133  00000-0 -57224-4 0  9992,2 48666  53.0554 177.1051 0001595  63.4669 296.6484 15.06385584 69166
2.0,GENERATED VIA SPACE-TRACK.ORG API,2022-08-20T06:56:12,18 SPCS,STARLINK-2458,2021-027AC,EARTH,TEME,UTC,SGP4,2022-08-20T02:57:07.796160,15.06398027,0.0001755,53.0531,216.6295,59.7524,300.3638,0,U,48118,999,7672,-0.00016092,-2.678e-05,0.0,6925.355,95.592,548.435,546.004,PAYLOAD,LARGE,US,2021-04-07,AFETR,,3540809,210552473,0 STARLINK-2458,1 48118U 21027AC  22232.12300690 -.00002678  00000-0 -16092-3 0  9992,2 48118  53.0531 216.6295 0001755  59.7524 300.3638 15.06398027 76728
2.0,GENERATED VIA SPACE-TRACK.ORG API,2022-08-20T07:16:13,18 SPCS,STARLINK-1878,2020-088AT,EARTH,TEME,UTC,SGP4,2022-08-20T02:57:07.625088,15.06393365,0.0001288,53.0572,16.6185,100.7112,259.4022,0,U,47163,999,9637,-5.3405e-05,-1.077e-05,0.0,6925.369,95.593,548.126,546.342,PAYLOAD,LARGE,US,2020-11-25,AFETR,,3540853,210553575,0 STARLINK-1878,1 47163U 20088AT  22232.12300492 -.00001077  00000-0 -53405-4 0  9999,2 47163  53.0572  16.6185 0001288 100.7112 259.4022 15.06393365 96373
2.0,GENERATED VIA SPACE-TRACK.ORG API,2022-08-20T08:06:12,18 SPCS,OBJECT A,2022-023A,EARTH,TEME,UTC,SGP4,2022-08-20T02:57:05.204160,15.22741386,0.0036934,63.4522,340.7781,335.3157,84.8211,0,U,51946,999,2557,0.00056634,0.00013333,0.0,6875.713,94.566,522.973,472.183,UNKNOWN,LARGE,PRC,2022-03-05,XSC,,3540907,210554733,0 OBJECT A,1 51946U 22023A   22232.12297690  .00013333  00000-0  56634-3 0  9991,2 51946  63.4522 340.7781 0036934 335.3157  84.8211 15.22741386 25573
2.0,GENERATED VIA SPACE-TRACK.ORG API,2022-08-20T07:26:12,18 SPCS,CZ-2C R/B,2017-085D,EARTH,TEME,UTC,SGP4,2022-08-20T02:56:40.291584,15.06628065,0.0097471,34.6704,17.9054,310.4213,48.802,0,U,43084,999,25597,0.00010746,1.792e-05,0.0,6924.65,95.578,614.01,479.019,ROCKET BODY,LARGE,PRC,2017-12-25,XSC,,3540868,210553759,0 CZ-2C R/B,1 43084U 17085D   22232.12268856  .00001792  00000-0  10746-3 0  9999,2 43084  34.6704  17.9054 0097471 310.4213  48.8020 15.06628065255972
2.0,GENERATED VIA SPACE-TRACK.ORG API,2022-08-20T07:26:12,18 SPCS,STARLINK-1404,2020-035AF,EARTH,TEME,UTC,SGP4,2022-08-20T02:56:28.556736,15.06384452,0.0002571,53.0546,121.6196,77.3725,282.7551,0,U,45686,999,12289,-8.0795e-05,-1.485e-05,0.0,6925.396,95.593,549.042,545.481,PAYLOAD,LARGE,US,2020-06-04,AFETR,,3540865,210553936,0 STARLINK-1404,1 45686U 20035AF  22232.12255274 -.00001485  00000-0 -80795-4 0  9991,2 45686  53.0546 121.6196 0002571  77.3725 282.7551 15.06384452122896
2.0,GENERATED VIA SPACE-TRACK.ORG API,2022-08-20T07:06:17,18 SPCS,STARLINK-1533,2020-055AU,EARTH,TEME,UTC,SGP4,2022-08-20T02:56:27.324672,15.06397613,0.0001522,53.0558,161.6326,81.1005,279.0156,0,U,46069,999,11320,-1.8812e-05,-5.62e-06,0.0,6925.356,95.592,548.275,546.167,PAYLOAD,LARGE,US,2020-08-07,AFETR,,3540821,210552750,0 STARLINK-1533,1 46069U 20055AU  22232.12253848 -.00000562  00000-0 -18812-4 0  9990,2 46069  53.0558 161.6326 0001522  81.1005 279.0156 15.06397613113201
2.0,GENERATED VIA SPACE-TRACK.ORG API,2022-08-20T07:06:17,18 SPCS,STARLINK-1857,2020-088Y,EARTH,TEME,UTC,SGP4,2022-08-20T02:55:48.526752,15.06388838,0.0001596,53.0556,346.6236,96.8835,263.2336,0,U,47144,999,9679,-6.8689e-05,-1.304e-05,0.0,6925.383,95.593,548.353,546.142,PAYLOAD,LARGE,US,2020-11-25,AFETR,,3540832,210553074,0 STARLINK-1857,1 47144U 20088Y   22232.12208943 -.00001304  00000-0 -68689-4 0  9999,2 47144  53.0556 346.6236 0001596  96.8835 263.2336 15.06388838 96792
2.0,GENERATED VIA SPACE-TRACK.ORG API,2022-08-20T06:46:12,18 SPCS,STARLINK-2701,2021-044U,EARTH,TEME,UTC,SGP4,2022-08-20T02:55:48.189792,15.06386337,0.0001568,53.0544,186.6388,77.2766,282.8398,0,U,48656,999,6897,1.0547e-06,-2.66e-06,0.0,6925.39,95.593,548.341,546.17,PAYLOAD,LARGE,US,2021-05-26,AFETR,,3540767,210551452,0 STARLINK-2701,1 48656U 21044U   22232.12208553 -.00000266  00000-0  10547-5 0  9994,2 48656  53.0544 186.6388 0001568  77.2766 282.8398 15.06386337 68979
